start=new Date('2021-11-28T00:00:00.000Z').valueOf();
sats=[{"PERIAPSIS":"546.342","CENTER_NAME":"EARTH","REF_FRAME":"TEME","APOAPSIS":"548.143","TLE_LINE2":"2 47810  53.0557  78.0129 0001300  76.4544 283.6590 15.06390553 40934","EPHEMERIS_TYPE":"0","OBJECT_ID":"2021-018Z","INCLINATION":"53.0557","RCS_SIZE":"LARGE","MEAN_ELEMENT_THEORY":"SGP4","TLE_LINE1":"1 47810U 21018Z   21331.73260921  .00000305  00000-0  39346-4 0  9999","REV_AT_EPOCH":"4093","MEAN_MOTION_DOT":"0.00000305","EPOCH":"2021-11-27T17:34:57.435744","ARG_OF_PERICENTER":"76.4544","PERIOD":"95.593","SEMIMAJOR_AXIS":"6925.378","CLASSIFICATION_TYPE":"U","MEAN_MOTION":"15.06390553","MEAN_ANOMALY":"283.6590","DECAY_DATE":null,"COUNTRY_CODE":"US","FILE":"3225675","RA_OF_ASC_NODE":"78.0129","NORAD_CAT_ID":"47810","TIME_SYSTEM":"UTC","OBJECT_NAME":"STARLINK-2391","SITE":"AFETR","BSTAR":"0.00003934600000","OBJECT_TYPE":"PAYLOAD","ELEMENT_SET_NO":"999","ECCENTRICITY":"0.00013000","MEAN_MOTION_DDOT":"0.0000000000000","LAUNCH_DATE":"2021-03-11","GP_ID":"190623716"},{"MEAN_MOTION_DOT":"-0.00000568","REV_AT_EPOCH":"4134","TLE_LINE1":"1 47811U 21018AA  21331.63953111 -.00000568  00000-0 -19234-4 0  9996","MEAN_ELEMENT_THEORY":"SGP4","RCS_SIZE":"LARGE","ARG_OF_PERICENTER":"78.5045","PERIOD":"95.592","EPOCH":"2021-11-27T15:20:55.487904","EPHEMERIS_TYPE":"0","TLE_LINE2":"2 47811  53.0575  48.4195 0001301  78.5045 281.6090 15.06403368 41347","REF_FRAME":"TEME","APOAPSIS":"548.104","CENTER_NAME":"EARTH","PERIAPSIS":"546.302","INCLINATION":"53.0575","OBJECT_ID":"2021-018AA","OBJECT_TYPE":"PAYLOAD","BSTAR":"-0.00001923400000","SITE":"AFETR","TIME_SYSTEM":"UTC","OBJECT_NAME":"STARLINK-2392","LAUNCH_DATE":"2021-03-11","GP_ID":"190622472","MEAN_MOTION_DDOT":"0.0000000000000","ECCENTRICITY":"0.00013010","ELEMENT_SET_NO":"999","COUNTRY_CODE":"US","DECAY_DATE":null,"MEAN_ANOMALY":"281.6090","MEAN_MOTION":"15.06403368","CLASSIFICATION_TYPE":"U","SEMIMAJOR_AXIS":"6925.338","FILE":"3225675","RA_OF_ASC_NODE":"48.4195","NORAD_CAT_ID":"47811"},{"INCLINATION":"53.0569","OBJECT_ID":"2021-018AB","EPHEMERIS_TYPE":"0","TLE_LINE2":"2 47812  53.0569  78.2405 0001304  85.3985 274.7153 15.06394923 40863","CENTER_NAME":"EARTH","PERIAPSIS":"546.326","REF_FRAME":"TEME","APOAPSIS":"548.132","ARG_OF_PERICENTER":"85.3985","PERIOD":"95.592","EPOCH":"2021-11-27T16:15:21.108096","REV_AT_EPOCH":"4086","MEAN_MOTION_DOT":"0.00001545","RCS_SIZE":"LARGE","TLE_LINE1":"1 47812U 21018AB  21331.67732764  .00001545  00000-0  12259-3 0  9993","MEAN_ELEMENT_THEORY":"SGP4","FILE":"3225675","NORAD_CAT_ID":"47812","RA_OF_ASC_NODE":"78.2405","DECAY_DATE":null,"COUNTRY_CODE":"US","SEMIMAJOR_AXIS":"6925.364","CLASSIFICATION_TYPE":"U","MEAN_ANOMALY":"274.7153","MEAN_MOTION":"15.06394923","GP_ID":"190622722","LAUNCH_DATE":"2021-03-11","MEAN_MOTION_DDOT":"0.0000000000000","ELEMENT_SET_NO":"999","ECCENTRICITY":"0.00013040","OBJECT_TYPE":"PAYLOAD","BSTAR":"0.00012259000000","TIME_SYSTEM":"UTC","OBJECT_NAME":"STARLINK-2393","SITE":"AFETR"},{"DECAY_DATE":null,"COUNTRY_CODE":"US","SEMIMAJOR_AXIS":"6925.376","CLASSIFICATION_TYPE":"U","MEAN_ANOMALY":"278.1336","MEAN_MOTION":"15.06391204","RA_OF_ASC_NODE":"48.6260","FILE":"3225675","NORAD_CAT_ID":"47813","OBJECT_TYPE":"PAYLOAD","BSTAR":"-0.00000454170000","OBJECT_NAME":"STARLINK-2394","TIME_SYSTEM":"UTC","SITE":"AFETR","LAUNCH_DATE":"2021-03-11","GP_ID":"190623458","MEAN_MOTION_DDOT":"0.0000000000000","ELEMENT_SET_NO":"999","ECCENTRICITY":"0.00014340","EPHEMERIS_TYPE":"0","TLE_LINE2":"2 47813  53.0578  48.6260 0001434  81.9815 278.1336 15.06391204 41335","CENTER_NAME":"EARTH","PERIAPSIS":"546.247","REF_FRAME":"TEME","APOAPSIS":"548.234","INCLINATION":"53.0578","OBJECT_ID":"2021-018AC","REV_AT_EPOCH":"4133","MEAN_MOTION_DOT":"-0.00000349","RCS_SIZE":"LARGE","TLE_LINE1":"1 47813U 21018AC  21331.59531508 -.00000349  00000-0 -45417-5 0  9995","MEAN_ELEMENT_THEORY":"SGP4","ARG_OF_PERICENTER":"81.9815","PERIOD":"95.593","EPOCH":"2021-11-27T14:17:15.222912"},{"OBJECT_ID":"2021-018AD","INCLINATION":"53.0578","APOAPSIS":"547.691","REF_FRAME":"TEME","CENTER_NAME":"EARTH","PERIAPSIS":"546.764","EPHEMERIS_TYPE":"0","TLE_LINE2":"2 47814  53.0578  68.2207 0000669  63.6607 296.4451 15.06395416 41071","PERIOD":"95.592","ARG_OF_PERICENTER":"63.6607","EPOCH":"2021-11-27T16:27:16.697952","TLE_LINE1":"1 47814U 21018AD  21331.68560993  .00000113  00000-0  26444-4 0  9991","MEAN_ELEMENT_THEORY":"SGP4","RCS_SIZE":"MEDIUM","MEAN_MOTION_DOT":"0.00000113","REV_AT_EPOCH":"4107","RA_OF_ASC_NODE":"68.2207","FILE":"3225675","NORAD_CAT_ID":"47814","MEAN_ANOMALY":"296.4451","MEAN_MOTION":"15.06395416","SEMIMAJOR_AXIS":"6925.363","CLASSIFICATION_TYPE":"U","COUNTRY_CODE":"US","DECAY_DATE":null,"ECCENTRICITY":"0.00006690","ELEMENT_SET_NO":"999","LAUNCH_DATE":"2021-03-11","GP_ID":"190623217","MEAN_MOTION_DDOT":"0.0000000000000","SITE":"AFETR","TIME_SYSTEM":"UTC","OBJECT_NAME":"STARLINK-2395","OBJECT_TYPE":"PAYLOAD","BSTAR":"0.00002644400000"},{"RCS_SIZE":"LARGE","MEAN_ELEMENT_THEORY":"SGP4","TLE_LINE1":"1 47815U 21018AE  21331.65105718 -.00000592  00000-0 -20851-4 0  9998","REV_AT_EPOCH":"4107","MEAN_MOTION_DOT":"-0.00000592","EPOCH":"2021-11-27T15:37:31.340352","PERIOD":"95.592","ARG_OF_PERICENTER":"80.5327","PERIAPSIS":"546.337","CENTER_NAME":"EARTH","APOAPSIS":"548.101","REF_FRAME":"TEME","TLE_LINE2":"2 47815  53.0572  63.3784 0001274  80.5327 279.5806 15.06398290 41071","EPHEMERIS_TYPE":"0","OBJECT_ID":"2021-018AE","INCLINATION":"53.0572","TIME_SYSTEM":"UTC","OBJECT_NAME":"STARLINK-2396","SITE":"AFETR","BSTAR":"-0.00002085100000","OBJECT_TYPE":"PAYLOAD","ELEMENT_SET_NO":"999","ECCENTRICITY":"0.00012740","MEAN_MOTION_DDOT":"0.0000000000000","LAUNCH_DATE":"2021-03-11","GP_ID":"190621973","CLASSIFICATION_TYPE":"U","SEMIMAJOR_AXIS":"6925.354","MEAN_MOTION":"15.06398290","MEAN_ANOMALY":"279.5806","DECAY_DATE":null,"COUNTRY_CODE":"US","NORAD_CAT_ID":"47815","FILE":"3225675","RA_OF_ASC_NODE":"63.3784"},{"FILE":"3225405","RA_OF_ASC_NODE":"69.5221","NORAD_CAT_ID":"47816","CLASSIFICATION_TYPE":"U","SEMIMAJOR_AXIS":"6925.376","MEAN_ANOMALY":"281.2121","MEAN_MOTION":"15.06390901","DECAY_DATE":null,"COUNTRY_CODE":"US","ELEMENT_SET_NO":"999","ECCENTRICITY":"0.00012150","LAUNCH_DATE":"2021-03-11","GP_ID":"190593415","MEAN_MOTION_DDOT":"0.0000000000000","TIME_SYSTEM":"UTC","OBJECT_NAME":"STARLINK-2399","SITE":"AFETR","OBJECT_TYPE":"PAYLOAD","BSTAR":"0.00003430800000","OBJECT_ID":"2021-018AF","INCLINATION":"53.0566","CENTER_NAME":"EARTH","PERIAPSIS":"546.400","REF_FRAME":"TEME","APOAPSIS":"548.083","EPHEMERIS_TYPE":"0","TLE_LINE2":"2 47816  53.0566  69.5221 0001215  78.9005 281.2121 15.06390901 40966","ARG_OF_PERICENTER":"78.9005","PERIOD":"95.593","EPOCH":"2021-11-27T09:27:58.436640","RCS_SIZE":"LARGE","TLE_LINE1":"1 47816U 21018AF  21331.39442635  .00000230  00000-0  34308-4 0  9991","MEAN_ELEMENT_THEORY":"SGP4","REV_AT_EPOCH":"4096","MEAN_MOTION_DOT":"0.00000230"},{"COUNTRY_CODE":"US","DECAY_DATE":null,"MEAN_MOTION":"15.06213753","MEAN_ANOMALY":"286.6193","SEMIMAJOR_AXIS":"6925.919","CLASSIFICATION_TYPE":"U","FILE":"3225675","RA_OF_ASC_NODE":"68.2389","NORAD_CAT_ID":"47817","BSTAR":"0.00280440000000","OBJECT_TYPE":"PAYLOAD","SITE":"AFETR","TIME_SYSTEM":"UTC","OBJECT_NAME":"STARLINK-2400","MEAN_MOTION_DDOT":"0.0000000000000","LAUNCH_DATE":"2021-03-11","GP_ID":"190622959","ECCENTRICITY":"0.00026530","ELEMENT_SET_NO":"999","TLE_LINE2":"2 47817  53.0552  68.2389 0002653  73.5088 286.6193 15.06213753 41005","EPHEMERIS_TYPE":"0","APOAPSIS":"549.622","REF_FRAME":"TEME","PERIAPSIS":"545.947","CENTER_NAME":"EARTH","INCLINATION":"53.0552","OBJECT_ID":"2021-018AG","MEAN_MOTION_DOT":"0.00041528","REV_AT_EPOCH":"4100","MEAN_ELEMENT_THEORY":"SGP4","TLE_LINE1":"1 47817U 21018AG  21331.67827790  .00041528  00000-0  28044-2 0  9995","RCS_SIZE":"LARGE","EPOCH":"2021-11-27T16:16:43.210560","ARG_OF_PERICENTER":"73.5088","PERIOD":"95.604"},{"CENTER_NAME":"EARTH","PERIAPSIS":"546.386","REF_FRAME":"TEME","APOAPSIS":"548.010","EPHEMERIS_TYPE":"0","TLE_LINE2":"2 47818  53.0563  73.7218 0001172  80.9442 279.1680 15.06405124 40924","OBJECT_ID":"2021-018AH","INCLINATION":"53.0563","RCS_SIZE":"LARGE","TLE_LINE1":"1 47818U 21018AH  21331.57272192  .00000506  00000-0  52863-4 0  9994","MEAN_ELEMENT_THEORY":"SGP4","REV_AT_EPOCH":"4092","MEAN_MOTION_DOT":"0.00000506","ARG_OF_PERICENTER":"80.9442","PERIOD":"95.592","EPOCH":"2021-11-27T13:44:43.173888","CLASSIFICATION_TYPE":"U","SEMIMAJOR_AXIS":"6925.333","MEAN_ANOMALY":"279.1680","MEAN_MOTION":"15.06405124","DECAY_DATE":null,"COUNTRY_CODE":"US","NORAD_CAT_ID":"47818","FILE":"3225405","RA_OF_ASC_NODE":"73.7218","TIME_SYSTEM":"UTC","OBJECT_NAME":"STARLINK-2401","SITE":"AFETR","OBJECT_TYPE":"PAYLOAD","BSTAR":"0.00005286300000","ELEMENT_SET_NO":"999","ECCENTRICITY":"0.00011720","GP_ID":"190593917","LAUNCH_DATE":"2021-03-11","MEAN_MOTION_DDOT":"0.0000000000000"},{"RCS_SIZE":"MEDIUM","MEAN_ELEMENT_THEORY":"SGP4","TLE_LINE1":"1 47819U 21018AJ  21331.74826772 -.00005028  00000-0 -31878-3 0  9991","REV_AT_EPOCH":"4108","MEAN_MOTION_DOT":"-0.00005028","EPOCH":"2021-11-27T17:57:30.331008","ARG_OF_PERICENTER":"83.9794","PERIOD":"95.591","PERIAPSIS":"546.385","CENTER_NAME":"EARTH","APOAPSIS":"547.947","REF_FRAME":"TEME","TLE_LINE2":"2 47819  53.0568  67.9484 0001128  83.9794 276.1324 15.06415486 41086","EPHEMERIS_TYPE":"0","OBJECT_ID":"2021-018AJ","INCLINATION":"53.0568","OBJECT_NAME":"STARLINK-2402","TIME_SYSTEM":"UTC","SITE":"AFETR","BSTAR":"-0.00031878000000","OBJECT_TYPE":"PAYLOAD","ELEMENT_SET_NO":"999","ECCENTRICITY":"0.00011280","MEAN_MOTION_DDOT":"0.0000000000000","LAUNCH_DATE":"2021-03-11","GP_ID":"190622473","SEMIMAJOR_AXIS":"6925.301","CLASSIFICATION_TYPE":"U","MEAN_MOTION":"15.06415486","MEAN_ANOMALY":"276.1324","DECAY_DATE":null,"COUNTRY_CODE":"US","RA_OF_ASC_NODE":"67.9484","FILE":"3225675","NORAD_CAT_ID":"47819"}];
